COSMO-SKYMED 1          
1 31598U 07023A   26114.19266696  .00001954  00000+0  17580-3 0  9999
2 31598  97.8870 305.5995 0001216 101.0317 259.1041 14.96827855 21714
COSMOS 2428             
1 31792U 07029A   26114.12668021 -.00000197  00000+0 -80045-4 0  9999
2 31792  70.9391 107.9729 0009164 227.0906 132.9447 14.12945755970519
SL-16 R/B               
1 31793U 07029B   26114.17060700  .00000292  00000+0  17619-3 0  9995
2 31793  70.9742  76.7770 0002538 268.2717 179.3234 14.14843823971801
KORONAS-FOTON           
1 33504U 09003A   26113.35465919  .00009437  00000+0  20248-3 0  9993
2 33504  82.4309 229.3984 0009955   0.6503 359.4756 15.44498639952639
CZ-2C R/B               
1 37731U 11030B   26113.62110615  .00000657  00000+0  89100-4 0  9990
2 37731  97.8614  70.0127 0051751 202.6467 331.1724 14.81350183796749
H-2A R/B                
1 38341U 12025E   26113.62935797  .00001109  00000+0  10462-3 0  9996
2 38341  98.4797  84.3060 0044423 164.0074 196.2559 14.95429254754935
SHIJIAN-16 (SJ-16)      
1 39358U 13057A   26114.21308541  .00000361  00000+0  38006-4 0  9992
2 39358  74.9710  98.8971 0016119 356.0896   4.0163 14.92469570678298
SL-4 R/B                
1 39679U 14021B   26114.05403032  .00009390  00000+0  20401-3 0  9993
2 39679  51.6057 115.7061 0092751 268.9804  90.0553 15.40634846663268
ALOS-2                  
1 39766U 14029A   26113.76237126  .00000425  00000+0  63814-4 0  9990
2 39766  97.9197 211.7047 0001804  88.1130 272.0288 14.79468543643532
YAOGAN-29               
1 41038U 15069A   26114.20249272 -.00000223  00000+0 -20828-4 0  9991
2 41038  98.0078 142.7409 0001637 142.8891 217.2435 14.83038266562623
ASTRO-H (HITOMI)        
1 41337U 16012A   26114.17454306  .00002467  00000+0  14134-3 0  9996
2 41337  30.9994  62.9538 0009395  69.1754 290.9890 15.10263809559118
HXMT (HUIYAN)           
1 42758U 17034A   26114.18674042  .00002135  00000+0  11370-3 0  9992
2 42758  43.0132 123.6134 0031167 165.1413 195.0357 15.17977784489456
SAOCOM 1A               
1 43641U 18076A   26114.19512214 -.00000110  00000+0 -72398-5 0  9996
2 43641  97.8902 301.7242 0001518  87.8248 272.3139 14.82150121408101
H-2A R/B                
1 43682U 18084L   26114.14752845  .00014834  00000+0  33407-3 0  9993
2 43682  98.8661 341.3065 0023336 222.6445 137.2987 15.43142298412785
SAOCOM 1B               
1 46265U 20059A   26114.15879957  .00000395  00000+0  56225-4 0  9994
2 46265  97.8897 300.7828 0001595  82.8420 277.2974 14.82142217305485
CSS (TIANHE)            
1 48274U 21035A   26113.54209464  .00023003  00000+0  25056-3 0  9991
2 48274  41.4673 294.8032 0006745 259.8887 100.1192 15.62838201284621
COSMOS 2550             
1 48865U 21056A   26113.96700788  .00003735  00000+0  11928-3 0  9994
2 48865  67.1426 263.9187 0008328 270.1837  89.8363 15.33830339270402
CZ-2C R/B               
1 52794U 22058K   26114.04529573  .00034836  00000+0  45125-3 0  9996
2 52794  50.1866  84.3691 0039141  35.0181 325.3353 15.57579590217199
CZ-2C R/B               
1 54039U 22132E   26113.99022161  .00035916  00000+0  35090-3 0  9997
2 54039  97.2946 118.8312 0012886 280.4213  79.5595 15.65992870197457
GSLV R/B                
1 54149U 22138AN  26114.17827747  .00001949  00000+0  16623-3 0  9999
2 54149  87.3817 151.1213 0020836 353.5688   6.5273 14.97018431190731
XRISM                   
1 57800U 23137A   26114.06629991  .00003906  00000+0  21647-3 0  9992
2 57800  31.0033 350.0477 0007504 137.7043 222.4175 15.11981271144669
ACS3                    
1 59588U 24077B   26112.74691476  .00004794  00000+0  37433-2 0  9996
2 59588  97.1850  43.9630 0066905 350.3018   9.6851 13.91470077100322
HTV-X1                  
1 66174U 25241A   26112.99220554  .00004413  00000+0  14900-3 0  9994
2 66174  51.6353 219.4042 0007821 344.1053  15.9682 15.32728944 27734
SZ-21 MODULE            
1 66515U 25246C   26114.16253346  .00034762  00000+0  25886-3 0  9999
2 66515  41.4730 282.6783 0004154 317.8890  42.1633 15.72046664 25221
