OBJECT_NAME,OBJECT_ID,EPOCH,MEAN_MOTION,ECCENTRICITY,INCLINATION,RA_OF_ASC_NODE,ARG_OF_PERICENTER,MEAN_ANOMALY,EPHEMERIS_TYPE,CLASSIFICATION_TYPE,NORAD_CAT_ID,ELEMENT_SET_NO,REV_AT_EPOCH,BSTAR,MEAN_MOTION_DOT,MEAN_MOTION_DDOT
COSMO-SKYMED 1,2007-023A,2026-04-24T04:37:26.425344,14.96827855,.0001216,97.8870,305.5995,101.0317,259.1041,0,U,31598,999,2171,.1758E-3,.1954E-4,0
COSMOS 2428,2007-029A,2026-04-24T03:02:25.170144,14.12945755,.0009164,70.9391,107.9729,227.0906,132.9447,0,U,31792,999,97051,-.80045E-4,-.197E-5,0
SL-16 R/B,2007-029B,2026-04-24T04:05:40.444800,14.14843823,.0002538,70.9742,76.7770,268.2717,179.3234,0,U,31793,999,97180,.17619E-3,.292E-5,0
KORONAS-FOTON,2009-003A,2026-04-23T08:30:42.554016,15.44498639,.00099559,82.4309,229.3984,0.6503,359.4756,0,U,33504,999,95263,.20248369E-3,.9437E-4,0
CZ-2C R/B,2011-030B,2026-04-23T14:54:23.571360,14.81350183,.0051751,97.8614,70.0127,202.6467,331.1724,0,U,37731,999,79674,.89100337E-4,.657E-5,0
H-2A R/B,2012-025E,2026-04-23T15:06:16.528608,14.95429254,.00444236,98.4797,84.3060,164.0074,196.2559,0,U,38341,999,75493,.10462038E-3,.1109E-4,0
SHIJIAN-16 (SJ-16),2013-057A,2026-04-24T05:06:50.579424,14.92469570,.0016119,74.9710,98.8971,356.0896,4.0163,0,U,39358,999,67829,.38006E-4,.361E-5,0
SL-4 R/B,2014-021B,2026-04-24T01:17:48.219648,15.40634846,.0092751,51.6057,115.7061,268.9804,90.0553,0,U,39679,999,66326,.20401E-3,.939E-4,0
ALOS-2,2014-029A,2026-04-23T18:17:48.876864,14.79468543,.00018042,97.9197,211.7047,88.1130,272.0288,0,U,39766,999,64353,.63814196E-4,.425E-5,0
YAOGAN-29,2015-069A,2026-04-24T04:51:35.371008,14.83038266,.0001637,98.0078,142.7409,142.8891,217.2435,0,U,41038,999,56262,-.20828E-4,-.223E-5,0
ASTRO-H (HITOMI),2016-012A,2026-04-24T04:11:20.520384,15.10263809,.0009395,30.9994,62.9538,69.1754,290.9890,0,U,41337,999,55911,.14134E-3,.2467E-4,0
HXMT (HUIYAN),2017-034A,2026-04-24T04:28:54.372288,15.17977784,.0031167,43.0132,123.6134,165.1413,195.0357,0,U,42758,999,48945,.1137E-3,.2135E-4,0
SAOCOM 1A,2018-076A,2026-04-24T04:40:58.552896,14.82150121,.0001518,97.8902,301.7242,87.8248,272.3139,0,U,43641,999,40810,-.72398E-5,-.11E-5,0
H-2A R/B,2018-084L,2026-04-24T03:32:26.458080,15.43142298,.0023336,98.8661,341.3065,222.6445,137.2987,0,U,43682,999,41278,.33407E-3,.14834E-3,0
SAOCOM 1B,2020-059A,2026-04-24T03:48:40.282848,14.82142217,.0001595,97.8897,300.7828,82.8420,277.2974,0,U,46265,999,30548,.56225E-4,.395E-5,0
CSS (TIANHE),2021-035A,2026-04-23T13:00:36.976896,15.62838201,.00067454,41.4673,294.8032,259.8887,100.1192,0,U,48274,999,28462,.25055873E-3,.23003E-3,0
COSMOS 2550,2021-056A,2026-04-23T23:12:29.480832,15.33830339,.0008328,67.1426,263.9187,270.1837,89.8363,0,U,48865,999,27040,.11928E-3,.3735E-4,0
CZ-2C R/B,2022-058K,2026-04-24T01:05:13.551072,15.57579590,.0039141,50.1866,84.3691,35.0181,325.3353,0,U,52794,999,21719,.45125E-3,.34836E-3,0
CZ-2C R/B,2022-132E,2026-04-23T23:45:55.147104,15.65992870,.0012886,97.2946,118.8312,280.4213,79.5595,0,U,54039,999,19745,.3509E-3,.35916E-3,0
GSLV R/B,2022-138AN,2026-04-24T04:16:43.173408,14.97018431,.0020836,87.3817,151.1213,353.5688,6.5273,0,U,54149,999,19073,.16623E-3,.1949E-4,0
XRISM,2023-137A,2026-04-24T01:35:28.312224,15.11981271,.0007504,31.0033,350.0477,137.7043,222.4175,0,U,57800,999,14466,.21647E-3,.3906E-4,0
ACS3,2024-077B,2026-04-22T17:55:33.435264,13.91470077,.0066905,97.1850,43.9630,350.3018,9.6851,0,U,59588,999,10032,.37433005E-2,.4794E-4,0
HTV-X1,2025-241A,2026-04-22T23:48:46.558656,15.32728944,.00078219,51.6353,219.4042,344.1053,15.9682,0,U,66174,999,2773,.14900059E-3,.4413E-4,0
SZ-21 MODULE,2025-246C,2026-04-24T03:54:02.890944,15.72046664,.0004154,41.4730,282.6783,317.8890,42.1633,0,U,66515,999,2522,.25886E-3,.34762E-3,0
